start=new Date('2021-12-10T00:00:00.000Z').valueOf();
sats=[{"ARG_OF_PERICENTER":"57.1557","ECCENTRICITY":"0.00010930","TLE_LINE1":"1 48035U 21024BL  21343.91667824  .00019867  11245-4  72758-4 0  9996","SITE":"AFETR","REV_AT_EPOCH":"368","TLE_LINE2":"2 48035  53.0512 348.0709 0001093  57.1557 182.7892 15.90882010  3680","CENTER_NAME":"EARTH","DECAY_DATE":null,"PERIOD":"90.516","EPOCH":"2021-12-09T22:00:00.999936","EPHEMERIS_TYPE":"0","BSTAR":"0.00007275800000","CLASSIFICATION_TYPE":"U","GP_ID":"191399795","ELEMENT_SET_NO":"999","TIME_SYSTEM":"UTC","OBJECT_ID":"2021-024BL","LAUNCH_DATE":"2021-03-24","MEAN_MOTION_DOT":"0.00019867","OBJECT_TYPE":"PAYLOAD","MEAN_ANOMALY":"182.7892","OBJECT_NAME":"STARLINK-2287","INCLINATION":"53.0512","APOAPSIS":"300.545","PERIAPSIS":"299.086","REF_FRAME":"TEME","SEMIMAJOR_AXIS":"6677.950","MEAN_ELEMENT_THEORY":"SGP4","FILE":"3236488","NORAD_CAT_ID":"48035","MEAN_MOTION_DDOT":"0.0000112450000","RA_OF_ASC_NODE":"348.0709","COUNTRY_CODE":"US","RCS_SIZE":"LARGE","MEAN_MOTION":"15.90882010"},{"MEAN_MOTION_DOT":"0.00001047","OBJECT_ID":"2021-024BM","LAUNCH_DATE":"2021-03-24","TIME_SYSTEM":"UTC","GP_ID":"191398543","ELEMENT_SET_NO":"999","BSTAR":"0.00008915700000","CLASSIFICATION_TYPE":"U","EPHEMERIS_TYPE":"0","PERIOD":"95.592","EPOCH":"2021-12-09T17:22:24.387168","DECAY_DATE":null,"TLE_LINE1":"1 48036U 21024BM  21343.72389337  .00001047  00000-0  89157-4 0  9991","SITE":"AFETR","TLE_LINE2":"2 48036  53.0552  94.1775 0001280  96.5067 263.6068 15.06401343 40866","REV_AT_EPOCH":"4086","CENTER_NAME":"EARTH","ECCENTRICITY":"0.00012800","ARG_OF_PERICENTER":"96.5067","MEAN_MOTION":"15.06401343","RCS_SIZE":"LARGE","COUNTRY_CODE":"US","MEAN_MOTION_DDOT":"0.0000000000000","RA_OF_ASC_NODE":"94.1775","FILE":"3236488","NORAD_CAT_ID":"48036","MEAN_ELEMENT_THEORY":"SGP4","SEMIMAJOR_AXIS":"6925.344","REF_FRAME":"TEME","APOAPSIS":"548.096","PERIAPSIS":"546.323","INCLINATION":"53.0552","OBJECT_NAME":"STARLINK-2295","MEAN_ANOMALY":"263.6068","OBJECT_TYPE":"PAYLOAD"},{"REV_AT_EPOCH":"3970","TLE_LINE2":"2 48092  53.0540 218.9565 0003007  67.7384 292.3923 15.06389195 39709","CENTER_NAME":"EARTH","SITE":"AFETR","TLE_LINE1":"1 48092U 21027A   21343.76857674 -.00001089  00000-0 -54192-4 0  9993","DECAY_DATE":null,"ARG_OF_PERICENTER":"67.7384","ECCENTRICITY":"0.00030070","EPHEMERIS_TYPE":"0","PERIOD":"95.593","EPOCH":"2021-12-09T18:26:45.030336","CLASSIFICATION_TYPE":"U","BSTAR":"-0.00005419200000","ELEMENT_SET_NO":"999","GP_ID":"191399551","MEAN_MOTION_DOT":"-0.00001089","TIME_SYSTEM":"UTC","OBJECT_ID":"2021-027A","LAUNCH_DATE":"2021-04-07","OBJECT_NAME":"STARLINK-2048","INCLINATION":"53.0540","APOAPSIS":"549.329","PERIAPSIS":"545.164","MEAN_ANOMALY":"292.3923","OBJECT_TYPE":"PAYLOAD","SEMIMAJOR_AXIS":"6925.382","MEAN_ELEMENT_THEORY":"SGP4","REF_FRAME":"TEME","RA_OF_ASC_NODE":"218.9565","MEAN_MOTION_DDOT":"0.0000000000000","NORAD_CAT_ID":"48092","FILE":"3236488","RCS_SIZE":"LARGE","MEAN_MOTION":"15.06389195","COUNTRY_CODE":"US"},{"MEAN_ANOMALY":"304.4446","OBJECT_TYPE":"PAYLOAD","PERIAPSIS":"545.693","APOAPSIS":"548.721","INCLINATION":"53.0565","OBJECT_NAME":"STARLINK-2404","REF_FRAME":"TEME","MEAN_ELEMENT_THEORY":"SGP4","SEMIMAJOR_AXIS":"6925.342","FILE":"3236488","NORAD_CAT_ID":"48093","RA_OF_ASC_NODE":"285.0043","MEAN_MOTION_DDOT":"0.0000000000000","COUNTRY_CODE":"US","RCS_SIZE":"LARGE","MEAN_MOTION":"15.06402138","ECCENTRICITY":"0.00021860","ARG_OF_PERICENTER":"55.6750","DECAY_DATE":null,"TLE_LINE2":"2 48093  53.0565 285.0043 0002186  55.6750 304.4446 15.06402138 38766","CENTER_NAME":"EARTH","REV_AT_EPOCH":"3876","TLE_LINE1":"1 48093U 21027B   21343.53957518 -.00000560  00000-0 -18657-4 0  9996","SITE":"AFETR","PERIOD":"95.592","EPOCH":"2021-12-09T12:56:59.295552","EPHEMERIS_TYPE":"0","ELEMENT_SET_NO":"999","GP_ID":"191399302","CLASSIFICATION_TYPE":"U","BSTAR":"-0.00001865700000","LAUNCH_DATE":"2021-04-07","OBJECT_ID":"2021-027B","TIME_SYSTEM":"UTC","MEAN_MOTION_DOT":"-0.00000560"},{"MEAN_ANOMALY":"300.2918","OBJECT_TYPE":"PAYLOAD","APOAPSIS":"548.644","PERIAPSIS":"545.859","INCLINATION":"53.0552","OBJECT_NAME":"STARLINK-2412","REF_FRAME":"TEME","MEAN_ELEMENT_THEORY":"SGP4","SEMIMAJOR_AXIS":"6925.387","NORAD_CAT_ID":"48094","FILE":"3236488","MEAN_MOTION_DDOT":"0.0000000000000","RA_OF_ASC_NODE":"294.8414","COUNTRY_CODE":"US","MEAN_MOTION":"15.06387592","RCS_SIZE":"LARGE","ECCENTRICITY":"0.00020110","ARG_OF_PERICENTER":"59.8270","DECAY_DATE":null,"TLE_LINE1":"1 48094U 21027C   21343.57646613 -.00000706  00000-0 -28464-4 0  9991","SITE":"AFETR","CENTER_NAME":"EARTH","TLE_LINE2":"2 48094  53.0552 294.8414 0002011  59.8270 300.2918 15.06387592 38633","REV_AT_EPOCH":"3863","PERIOD":"95.593","EPOCH":"2021-12-09T13:50:06.673632","EPHEMERIS_TYPE":"0","GP_ID":"191398050","ELEMENT_SET_NO":"999","BSTAR":"-0.00002846400000","CLASSIFICATION_TYPE":"U","LAUNCH_DATE":"2021-04-07","OBJECT_ID":"2021-027C","TIME_SYSTEM":"UTC","MEAN_MOTION_DOT":"-0.00000706"},{"OBJECT_TYPE":"PAYLOAD","MEAN_ANOMALY":"310.3715","APOAPSIS":"548.701","PERIAPSIS":"545.728","OBJECT_NAME":"STARLINK-2414","INCLINATION":"53.0557","REF_FRAME":"TEME","MEAN_ELEMENT_THEORY":"SGP4","SEMIMAJOR_AXIS":"6925.349","NORAD_CAT_ID":"48095","FILE":"3236488","RA_OF_ASC_NODE":"294.8144","MEAN_MOTION_DDOT":"0.0000000000000","COUNTRY_CODE":"US","RCS_SIZE":"LARGE","MEAN_MOTION":"15.06399712","ECCENTRICITY":"0.00021460","ARG_OF_PERICENTER":"49.7461","DECAY_DATE":null,"TLE_LINE2":"2 48095  53.0557 294.8144 0002146  49.7461 310.3715 15.06399712 38643","REV_AT_EPOCH":"3864","CENTER_NAME":"EARTH","TLE_LINE1":"1 48095U 21027D   21343.58382402  .00001063  00000-0  90282-4 0  9998","SITE":"AFETR","PERIOD":"95.592","EPOCH":"2021-12-09T14:00:42.395328","EPHEMERIS_TYPE":"0","ELEMENT_SET_NO":"999","GP_ID":"191398800","CLASSIFICATION_TYPE":"U","BSTAR":"0.00009028200000","OBJECT_ID":"2021-027D","LAUNCH_DATE":"2021-04-07","TIME_SYSTEM":"UTC","MEAN_MOTION_DOT":"0.00001063"},{"OBJECT_NAME":"STARLINK-2417","INCLINATION":"53.0558","APOAPSIS":"548.620","PERIAPSIS":"545.816","MEAN_ANOMALY":"302.8332","OBJECT_TYPE":"PAYLOAD","SEMIMAJOR_AXIS":"6925.353","MEAN_ELEMENT_THEORY":"SGP4","REF_FRAME":"TEME","MEAN_MOTION_DDOT":"0.0000000000000","RA_OF_ASC_NODE":"293.4419","FILE":"3236488","NORAD_CAT_ID":"48096","RCS_SIZE":"LARGE","MEAN_MOTION":"15.06398590","COUNTRY_CODE":"US","SITE":"AFETR","TLE_LINE1":"1 48096U 21027E   21343.88975816  .00001064  00000-0  90339-4 0  9993","TLE_LINE2":"2 48096  53.0558 293.4419 0002024  57.2852 302.8332 15.06398590 38675","CENTER_NAME":"EARTH","REV_AT_EPOCH":"3867","DECAY_DATE":null,"ARG_OF_PERICENTER":"57.2852","ECCENTRICITY":"0.00020240","EPHEMERIS_TYPE":"0","EPOCH":"2021-12-09T21:21:15.105024","PERIOD":"95.592","BSTAR":"0.00009033900000","CLASSIFICATION_TYPE":"U","GP_ID":"191399052","ELEMENT_SET_NO":"999","MEAN_MOTION_DOT":"0.00001064","TIME_SYSTEM":"UTC","LAUNCH_DATE":"2021-04-07","OBJECT_ID":"2021-027E"},{"NORAD_CAT_ID":"48097","FILE":"3236488","RA_OF_ASC_NODE":"274.7110","MEAN_MOTION_DDOT":"0.0000000000000","COUNTRY_CODE":"US","MEAN_MOTION":"15.06404450","RCS_SIZE":"LARGE","MEAN_ANOMALY":"301.5001","OBJECT_TYPE":"PAYLOAD","OBJECT_NAME":"STARLINK-2418","INCLINATION":"53.0560","PERIAPSIS":"545.437","APOAPSIS":"548.963","REF_FRAME":"TEME","SEMIMAJOR_AXIS":"6925.335","MEAN_ELEMENT_THEORY":"SGP4","CLASSIFICATION_TYPE":"U","BSTAR":"0.00018420000000","ELEMENT_SET_NO":"999","GP_ID":"191399802","TIME_SYSTEM":"UTC","OBJECT_ID":"2021-027F","LAUNCH_DATE":"2021-04-07","MEAN_MOTION_DOT":"0.00002463","ARG_OF_PERICENTER":"58.6236","ECCENTRICITY":"0.00025460","CENTER_NAME":"EARTH","TLE_LINE2":"2 48097  53.0560 274.7110 0002546  58.6236 301.5001 15.06404450 38918","REV_AT_EPOCH":"3891","TLE_LINE1":"1 48097U 21027F   21343.60410131  .00002463  00000-0  18420-3 0  9992","SITE":"AFETR","DECAY_DATE":null,"PERIOD":"95.592","EPOCH":"2021-12-09T14:29:54.353184","EPHEMERIS_TYPE":"0"},{"EPHEMERIS_TYPE":"0","EPOCH":"2021-12-09T13:56:44.562048","PERIOD":"95.593","SITE":"AFETR","TLE_LINE1":"1 48098U 21027G   21343.58107132 -.00000791  00000-0 -34227-4 0  9992","TLE_LINE2":"2 48098  53.0570 284.8218 0002205  56.6222 303.4978 15.06389930 38768","REV_AT_EPOCH":"3876","CENTER_NAME":"EARTH","DECAY_DATE":null,"ARG_OF_PERICENTER":"56.6222","ECCENTRICITY":"0.00022050","MEAN_MOTION_DOT":"-0.00000791","TIME_SYSTEM":"UTC","OBJECT_ID":"2021-027G","LAUNCH_DATE":"2021-04-07","BSTAR":"-0.00003422700000","CLASSIFICATION_TYPE":"U","GP_ID":"191398550","ELEMENT_SET_NO":"999","SEMIMAJOR_AXIS":"6925.379","MEAN_ELEMENT_THEORY":"SGP4","REF_FRAME":"TEME","OBJECT_NAME":"STARLINK-2421","INCLINATION":"53.0570","PERIAPSIS":"545.717","APOAPSIS":"548.771","MEAN_ANOMALY":"303.4978","OBJECT_TYPE":"PAYLOAD","MEAN_MOTION":"15.06389930","RCS_SIZE":"LARGE","COUNTRY_CODE":"US","MEAN_MOTION_DDOT":"0.0000000000000","RA_OF_ASC_NODE":"284.8218","NORAD_CAT_ID":"48098","FILE":"3236488"},{"MEAN_ELEMENT_THEORY":"SGP4","SEMIMAJOR_AXIS":"6925.388","REF_FRAME":"TEME","APOAPSIS":"548.720","PERIAPSIS":"545.787","INCLINATION":"53.0552","OBJECT_NAME":"STARLINK-2428","MEAN_ANOMALY":"302.2089","OBJECT_TYPE":"PAYLOAD","MEAN_MOTION":"15.06387030","RCS_SIZE":"LARGE","COUNTRY_CODE":"US","MEAN_MOTION_DDOT":"0.0000000000000","RA_OF_ASC_NODE":"293.3727","FILE":"3236488","NORAD_CAT_ID":"48099","EPHEMERIS_TYPE":"0","PERIOD":"95.593","EPOCH":"2021-12-09T21:37:11.738784","DECAY_DATE":null,"SITE":"AFETR","TLE_LINE1":"1 48099U 21027H   21343.90083031 -.00000883  00000-0 -40367-4 0  9994","CENTER_NAME":"EARTH","TLE_LINE2":"2 48099  53.0552 293.3727 0002118  57.9106 302.2089 15.06387030 38676","REV_AT_EPOCH":"3867","ECCENTRICITY":"0.00021180","ARG_OF_PERICENTER":"57.9106","MEAN_MOTION_DOT":"-0.00000883","OBJECT_ID":"2021-027H","LAUNCH_DATE":"2021-04-07","TIME_SYSTEM":"UTC","GP_ID":"191398301","ELEMENT_SET_NO":"999","BSTAR":"-0.00004036700000","CLASSIFICATION_TYPE":"U"}];
